{
  "type": "FeatureCollection",
  "features": [
    {
      "type": "Feature",
      "properties": {
        "norad_id": 29268,
        "name": "ARIRANG-2 (KOMPSAT-2)",
        "group": "resource",
        "lat": -31.912201629723874,
        "lon": -11.000239361400025,
        "alt_km": 686.7585135914142,
        "timestamp": "2025-12-11T08:58:26.770677+00:00",
        "meta_object_name": "ARIRANG-2 (KOMPSAT-2)",
        "meta_object_id": "2006-031A",
        "meta_epoch": "2025-12-11T05:00:12.870720",
        "meta_mean_motion": 14.64490807,
        "meta_eccentricity": 0.0013615,
        "meta_inclination": 97.8261,
        "meta_ra_of_asc_node": 173.7559,
        "meta_arg_of_pericenter": 314.514,
        "meta_mean_anomaly": 106.0845,
        "meta_ephemeris_type": 0,
        "meta_classification_type": "U",
        "meta_norad_cat_id": 29268,
        "meta_element_set_no": 999,
        "meta_rev_at_epoch": 3396,
        "meta_bstar": 0.00010136,
        "meta_mean_motion_dot": 4.92e-06,
        "meta_mean_motion_ddot": 0,
        "tle_line1": "1 29268U 06031A   25345.20848230  .00000492  00000+0  10136-3 0  9991",
        "tle_line2": "2 29268  97.8261 173.7559 0013615 314.5140 106.0845 14.64490807 33961"
      },
      "geometry": {
        "type": "Point",
        "coordinates": [
          -11.000239361400025,
          -31.912201629723874
        ]
      }
    },
    {
      "type": "Feature",
      "properties": {
        "norad_id": 29709,
        "name": "LAPAN-TUBSAT",
        "group": "resource",
        "lat": 42.16579256640664,
        "lon": -31.93277222853051,
        "alt_km": 600.2483682936054,
        "timestamp": "2025-12-11T08:58:26.770688+00:00",
        "meta_object_name": "LAPAN-TUBSAT",
        "meta_object_id": "2007-001A",
        "meta_epoch": "2025-12-11T05:33:00.061344",
        "meta_mean_motion": 14.85666361,
        "meta_eccentricity": 0.0013695,
        "meta_inclination": 98.1259,
        "meta_ra_of_asc_node": 335.3565,
        "meta_arg_of_pericenter": 78.43,
        "meta_mean_anomaly": 281.8451,
        "meta_ephemeris_type": 0,
        "meta_classification_type": "U",
        "meta_norad_cat_id": 29709,
        "meta_element_set_no": 999,
        "meta_rev_at_epoch": 2324,
        "meta_bstar": 9.3825e-05,
        "meta_mean_motion_dot": 7.57e-06,
        "meta_mean_motion_ddot": 0,
        "tle_line1": "1 29709U 07001A   25345.23125071  .00000757  00000+0  93825-4 0  9994",
        "tle_line2": "2 29709  98.1259 335.3565 0013695  78.4300 281.8451 14.85666361 23245"
      },
      "geometry": {
        "type": "Point",
        "coordinates": [
          -31.93277222853051,
          42.16579256640664
        ]
      }
    },
    {
      "type": "Feature",
      "properties": {
        "norad_id": 31113,
        "name": "HAIYANG-1B",
        "group": "resource",
        "lat": -16.67255769831139,
        "lon": 147.19311457240323,
        "alt_km": 802.64501022885,
        "timestamp": "2025-12-11T08:58:26.770701+00:00",
        "meta_object_name": "HAIYANG-1B",
        "meta_object_id": "2007-010A",
        "meta_epoch": "2025-12-11T04:42:07.449120",
        "meta_mean_motion": 14.30964143,
        "meta_eccentricity": 0.001432,
        "meta_inclination": 98.3313,
        "meta_ra_of_asc_node": 329.5378,
        "meta_arg_of_pericenter": 42.2744,
        "meta_mean_anomaly": 317.9541,
        "meta_ephemeris_type": 0,
        "meta_classification_type": "U",
        "meta_norad_cat_id": 31113,
        "meta_element_set_no": 999,
        "meta_rev_at_epoch": 97374,
        "meta_bstar": 9.2288e-05,
        "meta_mean_motion_dot": 2.01e-06,
        "meta_mean_motion_ddot": 0,
        "tle_line1": "1 31113U 07010A   25345.19591955  .00000201  00000+0  92288-4 0  9995",
        "tle_line2": "2 31113  98.3313 329.5378 0014320  42.2744 317.9541 14.30964143973743"
      },
      "geometry": {
        "type": "Point",
        "coordinates": [
          147.19311457240323,
          -16.67255769831139
        ]
      }
    },
    {
      "type": "Feature",
      "properties": {
        "norad_id": 31598,
        "name": "COSMO-SKYMED 1",
        "group": "resource",
        "lat": -50.014578527725064,
        "lon": -179.72598662499541,
        "alt_km": 587.5304301811311,
        "timestamp": "2025-12-11T08:58:26.770725+00:00",
        "meta_object_name": "COSMO-SKYMED 1",
        "meta_object_id": "2007-023A",
        "meta_epoch": "2025-12-11T04:23:01.137120",
        "meta_mean_motion": 14.95744113,
        "meta_eccentricity": 0.0001094,
        "meta_inclination": 97.8835,
        "meta_ra_of_asc_node": 170.5717,
        "meta_arg_of_pericenter": 86.3493,
        "meta_mean_anomaly": 273.7852,
        "meta_ephemeris_type": 0,
        "meta_classification_type": "U",
        "meta_norad_cat_id": 31598,
        "meta_element_set_no": 999,
        "meta_rev_at_epoch": 167,
        "meta_bstar": 0.00053108,
        "meta_mean_motion_dot": 5.861e-05,
        "meta_mean_motion_ddot": 0,
        "tle_line1": "1 31598U 07023A   25345.18265205  .00005861  00000+0  53108-3 0  9995",
        "tle_line2": "2 31598  97.8835 170.5717 0001094  86.3493 273.7852 14.95744113  1670"
      },
      "geometry": {
        "type": "Point",
        "coordinates": [
          -179.72598662499541,
          -50.014578527725064
        ]
      }
    },
    {
      "type": "Feature",
      "properties": {
        "norad_id": 31698,
        "name": "TERRASAR-X",
        "group": "resource",
        "lat": -30.335767286971095,
        "lon": 166.38549785511327,
        "alt_km": 515.0589089461946,
        "timestamp": "2025-12-11T08:58:26.770747+00:00",
        "meta_object_name": "TERRASAR-X",
        "meta_object_id": "2007-026A",
        "meta_epoch": "2025-12-10T13:04:49.433376",
        "meta_mean_motion": 15.19151507,
        "meta_eccentricity": 0.0001862,
        "meta_inclination": 97.446,
        "meta_ra_of_asc_node": 349.9579,
        "meta_arg_of_pericenter": 94.9214,
        "meta_mean_anomaly": 265.2234,
        "meta_ephemeris_type": 0,
        "meta_classification_type": "U",
        "meta_norad_cat_id": 31698,
        "meta_element_set_no": 999,
        "meta_rev_at_epoch": 2458,
        "meta_bstar": 9.1186e-05,
        "meta_mean_motion_dot": 1.848e-05,
        "meta_mean_motion_ddot": 0,
        "tle_line1": "1 31698U 07026A   25344.54501659  .00001848  00000+0  91186-4 0  9994",
        "tle_line2": "2 31698  97.4460 349.9579 0001862  94.9214 265.2234 15.19151507 24589"
      },
      "geometry": {
        "type": "Point",
        "coordinates": [
          166.38549785511327,
          -30.335767286971095
        ]
      }
    },
    {
      "type": "Feature",
      "properties": {
        "norad_id": 32060,
        "name": "WORLDVIEW-1 (WV-1)",
        "group": "resource",
        "lat": -4.77771656761891,
        "lon": -77.74706479245532,
        "alt_km": 495.43631746373194,
        "timestamp": "2025-12-11T08:58:26.770763+00:00",
        "meta_object_name": "WORLDVIEW-1 (WV-1)",
        "meta_object_id": "2007-041A",
        "meta_epoch": "2025-12-11T05:00:58.762944",
        "meta_mean_motion": 15.24647376,
        "meta_eccentricity": 7.41e-05,
        "meta_inclination": 97.3835,
        "meta_ra_of_asc_node": 102.7114,
        "meta_arg_of_pericenter": 105.8602,
        "meta_mean_anomaly": 254.2717,
        "meta_ephemeris_type": 0,
        "meta_classification_type": "U",
        "meta_norad_cat_id": 32060,
        "meta_element_set_no": 999,
        "meta_rev_at_epoch": 1424,
        "meta_bstar": 0.00053613,
        "meta_mean_motion_dot": 0.00013179,
        "meta_mean_motion_ddot": 0,
        "tle_line1": "1 32060U 07041A   25345.20901346  .00013179  00000+0  53613-3 0  9998",
        "tle_line2": "2 32060  97.3835 102.7114 0000741 105.8602 254.2717 15.24647376 14242"
      },
      "geometry": {
        "type": "Point",
        "coordinates": [
          -77.74706479245532,
          -4.77771656761891
        ]
      }
    },
    {
      "type": "Feature",
      "properties": {
        "norad_id": 32289,
        "name": "YAOGAN-3",
        "group": "resource",
        "lat": -7.858428748037802,
        "lon": -169.0785629506384,
        "alt_km": 602.8104379013294,
        "timestamp": "2025-12-11T08:58:26.770775+00:00",
        "meta_object_name": "YAOGAN-3",
        "meta_object_id": "2007-055A",
        "meta_epoch": "2025-12-11T00:04:27.662016",
        "meta_mean_motion": 14.89842198,
        "meta_eccentricity": 0.00012777,
        "meta_inclination": 97.8367,
        "meta_ra_of_asc_node": 11.6432,
        "meta_arg_of_pericenter": 73.1289,
        "meta_mean_anomaly": 287.0069,
        "meta_ephemeris_type": 0,
        "meta_classification_type": "U",
        "meta_norad_cat_id": 32289,
        "meta_element_set_no": 999,
        "meta_rev_at_epoch": 97783,
        "meta_bstar": 0.00036176875,
        "meta_mean_motion_dot": 3.42e-05,
        "meta_mean_motion_ddot": 0,
        "tle_line1": "1 32289U 07055A   25345.00309794  .00003420  00000+0  36177-3 0  9997",
        "tle_line2": "2 32289  97.8367  11.6432 0001277  73.1289 287.0069 14.89842198977830"
      },
      "geometry": {
        "type": "Point",
        "coordinates": [
          -169.0785629506384,
          -7.858428748037802
        ]
      }
    }
  ]
}